{
    "links": {
        "self": "http://www.neowsapp.com/rest/v1/neo/3825021?api_key=iIulBulltgU6a56xZRHN4H3l9WmuAYTsLGpBGhQ2"
    },
    "id": "3825021",
    "neo_reference_id": "3825021",
    "name": "(2018 KP2)",
    "designation": "2018 KP2",
    "nasa_jpl_url": "http://ssd.jpl.nasa.gov/sbdb.cgi?sstr=3825021",
    "absolute_magnitude_h": 24.5,
    "estimated_diameter": {
        "kilometers": {
            "estimated_diameter_min": 0.0334622374,
            "estimated_diameter_max": 0.0748238376
        },
        "meters": {
            "estimated_diameter_min": 33.4622374455,
            "estimated_diameter_max": 74.8238376074
        },
        "miles": {
            "estimated_diameter_min": 0.0207924639,
            "estimated_diameter_max": 0.0464933628
        },
        "feet": {
            "estimated_diameter_min": 109.7842471007,
            "estimated_diameter_max": 245.4850393757
        }
    },
    "is_potentially_hazardous_asteroid": false,
    "close_approach_data": [
        {
            "close_approach_date": "2018-05-24",
            "close_approach_date_full": "2018-May-24 18:39",
            "epoch_date_close_approach": 1527187140000,
            "relative_velocity": {
                "kilometers_per_second": "13.2491598746",
                "kilometers_per_hour": "47696.9755484189",
                "miles_per_hour": "29637.0457234051"
            },
            "miss_distance": {
                "astronomical": "0.0301593787",
                "lunar": "11.7319983143",
                "kilometers": "4511778.814043369",
                "miles": "2803489.3555177322"
            },
            "orbiting_body": "Earth"
        }
    ],
    "orbital_data": {
        "orbit_id": "4",
        "orbit_determination_date": "2018-06-17 06:23:29",
        "first_observation_date": "2018-05-23",
        "last_observation_date": "2018-06-08",
        "data_arc_in_days": 16,
        "observations_used": 46,
        "orbit_uncertainty": "8",
        "minimum_orbit_intersection": ".0301597",
        "jupiter_tisserand_invariant": "4.060",
        "epoch_osculation": "2458262.5",
        "eccentricity": ".4067446188407115",
        "semi_major_axis": "1.684780448203576",
        "inclination": "20.92197129150389",
        "ascending_node_longitude": "64.94554408115424",
        "orbital_period": "798.754646835956",
        "perihelion_distance": ".9995050669687292",
        "perihelion_argument": "147.9023542715587",
        "aphelion_distance": "2.370055829438422",
        "perihelion_time": "2458236.645689123669",
        "mean_anomaly": "11.65257936507591",
        "mean_motion": ".4507016033346907",
        "equinox": "J2000",
        "orbit_class": {
            "orbit_class_type": "APO",
            "orbit_class_description": "Near-Earth asteroid orbits which cross the Earth’s orbit similar to that of 1862 Apollo",
            "orbit_class_range": "a (semi-major axis) > 1.0 AU; q (perihelion) < 1.017 AU"
        }
    },
    "is_sentry_object": false
}